[
    {
        "Altitude(m)": 707283.8878717693,
        "Argument of Periapsis(deg)": 0.004556048474650827,
        "Eccentricity": 0.0,
        "Inclination(deg)": 45.0,
        "Latitude(deg)": 45.043319502753874,
        "Longitude(deg)": -40.330036923769526,
        "Mean Anomaly(deg)": -273.56851334100764,
        "RAAN(deg)": 334.99569922341675,
        "Satellite Name": "Constellation 1 1479",
        "Satellite Number": 1479,
        "Semi-Major Axis(m)": 7083131.272910544,
        "Time(s)": 76
    },
    {
        "Altitude(m)": 707284.7439124453,
        "Argument of Periapsis(deg)": 0.004615996480896233,
        "Eccentricity": 0.0,
        "Inclination(deg)": 45.0,
        "Latitude(deg)": 45.047065186285906,
        "Longitude(deg)": -40.24857801775178,
        "Mean Anomaly(deg)": -273.50781220075777,
        "RAAN(deg)": 334.99564263425117,
        "Satellite Name": "Constellation 1 1479",
        "Satellite Number": 1479,
        "Semi-Major Axis(m)": 7083131.272910544,
        "Time(s)": 77
    },
    {
        "Altitude(m)": 707285.5854564941,
        "Argument of Periapsis(deg)": 0.004675944487141638,
        "Eccentricity": 0.0,
        "Inclination(deg)": 45.0,
        "Latitude(deg)": 45.05074677611639,
        "Longitude(deg)": -40.167108045698804,
        "Mean Anomaly(deg)": -273.4471110605079,
        "RAAN(deg)": 334.9955860450856,
        "Satellite Name": "Constellation 1 1479",
        "Satellite Number": 1479,
        "Semi-Major Axis(m)": 7083131.272910544,
        "Time(s)": 78
    },
    {
        "Altitude(m)": 707286.412499039,
        "Argument of Periapsis(deg)": 0.004735892493387044,
        "Eccentricity": 0.0,
        "Inclination(deg)": 45.0,
        "Latitude(deg)": 45.05436425593846,
        "Longitude(deg)": -40.08562719582935,
        "Mean Anomaly(deg)": -273.38640992025796,
        "RAAN(deg)": 334.99552945592006,
        "Satellite Name": "Constellation 1 1479",
        "Satellite Number": 1479,
        "Semi-Major Axis(m)": 7083131.272910544,
        "Time(s)": 79
    },
    {
        "Altitude(m)": 707287.2250352697,
        "Argument of Periapsis(deg)": 0.004795840499632449,
        "Eccentricity": 0.0,
        "Inclination(deg)": 45.0,
        "Latitude(deg)": 45.0579176097241,
        "Longitude(deg)": -40.00413565655612,
        "Mean Anomaly(deg)": -273.32570878000814,
        "RAAN(deg)": 334.9954728667544,
        "Satellite Name": "Constellation 1 1479",
        "Satellite Number": 1479,
        "Semi-Major Axis(m)": 7083131.272910544,
        "Time(s)": 80
    },
    {
        "Altitude(m)": 707288.0230604768,
        "Argument of Periapsis(deg)": 0.004855788505877855,
        "Eccentricity": 0.0,
        "Inclination(deg)": 45.0,
        "Latitude(deg)": 45.061406821724574,
        "Longitude(deg)": -39.92263361648107,
        "Mean Anomaly(deg)": -273.2650076397581,
        "RAAN(deg)": 334.9954162775889,
        "Satellite Name": "Constellation 1 1479",
        "Satellite Number": 1479,
        "Semi-Major Axis(m)": 7083131.272910544,
        "Time(s)": 81
    },
    {
        "Altitude(m)": 707288.8065700283,
        "Argument of Periapsis(deg)": 0.00491573651212326,
        "Eccentricity": 0.0,
        "Inclination(deg)": 45.0,
        "Latitude(deg)": 45.06483187647029,
        "Longitude(deg)": -39.841121432491356,
        "Mean Anomaly(deg)": -273.2043064995083,
        "RAAN(deg)": 334.9953596884233,
        "Satellite Name": "Constellation 1 1479",
        "Satellite Number": 1479,
        "Semi-Major Axis(m)": 7083131.272910544,
        "Time(s)": 82
    },
    {
        "Altitude(m)": 707289.575559376,
        "Argument of Periapsis(deg)": 0.004975684518368666,
        "Eccentricity": 0.0,
        "Inclination(deg)": 45.0,
        "Latitude(deg)": 45.068192758772426,
        "Longitude(deg)": -39.75959895736609,
        "Mean Anomaly(deg)": -273.1436053592584,
        "RAAN(deg)": 334.99530309925774,
        "Satellite Name": "Constellation 1 1479",
        "Satellite Number": 1479,
        "Semi-Major Axis(m)": 7083131.272910544,
        "Time(s)": 83
    },
    {
        "Altitude(m)": 707290.330024064,
        "Argument of Periapsis(deg)": 0.005035632524614072,
        "Eccentricity": 0.0,
        "Inclination(deg)": 45.0,
        "Latitude(deg)": 45.07148945372153,
        "Longitude(deg)": -39.6780665483554,
        "Mean Anomaly(deg)": -273.08290421900847,
        "RAAN(deg)": 334.9952465100922,
        "Satellite Name": "Constellation 1 1479",
        "Satellite Number": 1479,
        "Semi-Major Axis(m)": 7083131.272910544,
        "Time(s)": 84
    },
    {
        "Altitude(m)": 707291.0699597114,
        "Argument of Periapsis(deg)": 0.0050955805308594785,
        "Eccentricity": 0.0,
        "Inclination(deg)": 45.0,
        "Latitude(deg)": 45.074721946688896,
        "Longitude(deg)": -39.59652439479037,
        "Mean Anomaly(deg)": -273.0222030787586,
        "RAAN(deg)": 334.9951899209266,
        "Satellite Name": "Constellation 1 1479",
        "Satellite Number": 1479,
        "Semi-Major Axis(m)": 7083131.272910544,
        "Time(s)": 85
    },
    {
        "Altitude(m)": 707291.7953620318,
        "Argument of Periapsis(deg)": 0.005155528537104883,
        "Eccentricity": 0.0,
        "Inclination(deg)": 45.0,
        "Latitude(deg)": 45.0778902233267,
        "Longitude(deg)": -39.51497268617501,
        "Mean Anomaly(deg)": -272.96150193850866,
        "RAAN(deg)": 334.99513333176105,
        "Satellite Name": "Constellation 1 1479",
        "Satellite Number": 1479,
        "Semi-Major Axis(m)": 7083131.272910544,
        "Time(s)": 86
    },
    {
        "Altitude(m)": 707292.5062268174,
        "Argument of Periapsis(deg)": 0.0052154765433502885,
        "Eccentricity": 0.0,
        "Inclination(deg)": 45.0,
        "Latitude(deg)": 45.08099426956812,
        "Longitude(deg)": -39.433411612184514,
        "Mean Anomaly(deg)": -272.9008007982588,
        "RAAN(deg)": 334.9950767425955,
        "Satellite Name": "Constellation 1 1479",
        "Satellite Number": 1479,
        "Semi-Major Axis(m)": 7083131.272910544,
        "Time(s)": 87
    },
    {
        "Altitude(m)": 707293.2025499532,
        "Argument of Periapsis(deg)": 0.005275424549595694,
        "Eccentricity": 0.0,
        "Inclination(deg)": 45.0,
        "Latitude(deg)": 45.0840340716279,
        "Longitude(deg)": -39.351841362660544,
        "Mean Anomaly(deg)": -272.84009965800885,
        "RAAN(deg)": 334.9950201534299,
        "Satellite Name": "Constellation 1 1479",
        "Satellite Number": 1479,
        "Semi-Major Axis(m)": 7083131.272910544,
        "Time(s)": 88
    },
    {
        "Altitude(m)": 707293.8843273937,
        "Argument of Periapsis(deg)": 0.0053353725558411,
        "Eccentricity": 0.0,
        "Inclination(deg)": 45.0,
        "Latitude(deg)": 45.08700961600211,
        "Longitude(deg)": -39.270262295706345,
        "Mean Anomaly(deg)": -272.779398517759,
        "RAAN(deg)": 334.9949635642643,
        "Satellite Name": "Constellation 1 1479",
        "Satellite Number": 1479,
        "Semi-Major Axis(m)": 7083131.272910544,
        "Time(s)": 89
    },
    {
        "Altitude(m)": 707294.5515552002,
        "Argument of Periapsis(deg)": 0.005395320562086505,
        "Eccentricity": 0.0,
        "Inclination(deg)": 45.0,
        "Latitude(deg)": 45.08992088946958,
        "Longitude(deg)": -39.188674265294225,
        "Mean Anomaly(deg)": -272.7186973775091,
        "RAAN(deg)": 334.99490697509873,
        "Satellite Name": "Constellation 1 1479",
        "Satellite Number": 1479,
        "Semi-Major Axis(m)": 7083131.272910544,
        "Time(s)": 90
    },
    {
        "Altitude(m)": 707295.2042295011,
        "Argument of Periapsis(deg)": 0.00545526856833191,
        "Eccentricity": 0.0,
        "Inclination(deg)": 45.0,
        "Latitude(deg)": 45.09276787909071,
        "Longitude(deg)": -39.10707762984461,
        "Mean Anomaly(deg)": -272.65799623725917,
        "RAAN(deg)": 334.9948503859332,
        "Satellite Name": "Constellation 1 1479",
        "Satellite Number": 1479,
        "Semi-Major Axis(m)": 7083131.272910544,
        "Time(s)": 91
    },
    {
        "Altitude(m)": 707295.8423465163,
        "Argument of Periapsis(deg)": 0.005515216574577317,
        "Eccentricity": 0.0,
        "Inclination(deg)": 45.0,
        "Latitude(deg)": 45.09555057220867,
        "Longitude(deg)": -39.02547257983508,
        "Mean Anomaly(deg)": -272.59729509700935,
        "RAAN(deg)": 334.9947937967676,
        "Satellite Name": "Constellation 1 1479",
        "Satellite Number": 1479,
        "Semi-Major Axis(m)": 7083131.272910544,
        "Time(s)": 92
    },
    {
        "Altitude(m)": 707296.4659025557,
        "Argument of Periapsis(deg)": 0.005575164580822722,
        "Eccentricity": 0.0,
        "Inclination(deg)": 45.0,
        "Latitude(deg)": 45.098268956449445,
        "Longitude(deg)": -38.943859305893326,
        "Mean Anomaly(deg)": -272.53659395675936,
        "RAAN(deg)": 334.9947372076021,
        "Satellite Name": "Constellation 1 1479",
        "Satellite Number": 1479,
        "Semi-Major Axis(m)": 7083131.272910544,
        "Time(s)": 93
    },
    {
        "Altitude(m)": 707297.0748940015,
        "Argument of Periapsis(deg)": 0.005635112587068129,
        "Eccentricity": 0.0,
        "Inclination(deg)": 45.0,
        "Latitude(deg)": 45.10092301972212,
        "Longitude(deg)": -38.86223799879444,
        "Mean Anomaly(deg)": -272.4758928165095,
        "RAAN(deg)": 334.99468061843646,
        "Satellite Name": "Constellation 1 1479",
        "Satellite Number": 1479,
        "Semi-Major Axis(m)": 7083131.272910544,
        "Time(s)": 94
    }
]